[Satellite]
VERSION=1.1
NAME=SL-16 R/B
NICKNAME=SL-16 R/B
TLE1=1 23088U 94023B   19316.90291345  .00000183  00000-0  11976-3 0  9991
TLE2=2 23088  71.0001 237.7383 0004780 228.7258 131.3453 14.14680805319547
STATUS=0
